NORAD_CAT_ID,OBJECT_NAME,OBJECT_TYPE,EPOCH,MEAN_MOTION,ECCENTRICITY,INCLINATION,RA_OF_ASC_NODE,ARG_OF_PERICENTER,MEAN_ANOMALY,BSTAR,MEAN_MOTION_DOT,MEAN_MOTION_DDOT,TLE_LINE0,TLE_LINE1,TLE_LINE2,SEMIMAJOR_AXIS,PERIOD,APOGEE,PERIGEE,DECAYED
49746.0,STARLINK-3233,PAYLOAD,2023-04-19 07:24:46,15.0883737,0.000154,53.2197,206.9108,102.8223,257.2942,4.9209e-05,4.95e-06,0.0,0 STARLINK-3233,1 49746U 21115Y   23109.30886661  .00000495  00000-0  49209-4 0  9999,2 49746  53.2197 206.9108 0001540 102.8223 257.2942 15.08837370 77314,6917.888,95.438,540.819,538.688,0.0
49746.0,STARLINK-3233,PAYLOAD,2023-04-19 13:46:18,15.0884361,0.0001343,53.2189,205.7217,95.4677,264.6469,0.00012316,1.673e-05,0.0,0 STARLINK-3233,1 49746U 21115Y   23109.57382278  .00001673  00000-0  12316-3 0  9990,2 49746  53.2189 205.7217 0001343  95.4677 264.6469 15.08843610 76245,6917.869,95.437,540.663,538.805,0.0
49746.0,STARLINK-3233,PAYLOAD,2023-04-20 07:15:33,15.08837017,0.0001524,53.2194,202.4507,88.8246,271.2921,2.6682e-05,1.37e-06,0.0,0 STARLINK-3233,1 49746U 21115Y   23110.30246793  .00000137  00000-0  26682-4 0  9990,2 49746  53.2194 202.4507 0001524  88.8246 271.2921 15.08837017 76359,6917.89,95.438,540.809,538.7,0.0
49746.0,STARLINK-3233,PAYLOAD,2023-04-20 13:37:05,15.08841689,0.0001536,53.2184,201.2606,85.7292,274.3876,7.5586e-05,9.15e-06,0.0,0 STARLINK-3233,1 49746U 21115Y   23110.56742568  .00000915  00000-0  75586-4 0  9990,2 49746  53.2184 201.2606 0001536  85.7292 274.3876 15.08841689 76392,6917.875,95.437,540.803,538.678,0.0
49746.0,STARLINK-3233,PAYLOAD,2023-04-21 11:52:30,15.08830935,0.0001427,53.2176,197.0975,83.9587,276.1568,2.8136e-05,1.6e-06,0.0,0 STARLINK-3233,1 49746U 21115Y   23111.49479474  .00000160  00000-0  28136-4 0  9997,2 49746  53.2176 197.0975 0001427  83.9587 276.1568 15.08830935 76536,6917.908,95.438,540.76,538.786,0.0
49746.0,STARLINK-3233,PAYLOAD,2023-04-21 15:03:16,15.08839062,0.0001334,53.218,196.5023,84.2537,275.8608,3.6414e-05,2.92e-06,0.0,0 STARLINK-3233,1 49746U 21115Y   23111.62727273  .00000292  00000-0  36414-4 0  9999,2 49746  53.2180 196.5023 0001334  84.2537 275.8608 15.08839062 76558,6917.883,95.438,540.671,538.825,0.0
49746.0,STARLINK-3233,PAYLOAD,2023-04-22 05:21:44,15.08840431,0.000134,53.2166,193.8253,73.6651,286.4488,0.00015079,2.113e-05,0.0,0 STARLINK-3233,1 49746U 21115Y   23112.22343028  .00002113  00000-0  15079-3 0  9995,2 49746  53.2166 193.8253 0001340  73.6651 286.4488 15.08840431 77752,6917.879,95.438,540.671,538.817,0.0
49746.0,STARLINK-3233,PAYLOAD,2023-04-22 14:54:02,15.08855782,0.0001253,53.216,192.0406,72.4424,287.6705,0.00018661,2.685e-05,0.0,0 STARLINK-3233,1 49746U 21115Y   23112.62085804  .00002685  00000-0  18661-3 0  9998,2 49746  53.2160 192.0406 0001253  72.4424 287.6705 15.08855782 76709,6917.832,95.437,540.564,538.83,0.0
49746.0,STARLINK-3233,PAYLOAD,2023-04-23 05:12:31,15.08836119,0.0001548,53.2162,189.3647,80.2969,279.8198,9.2987e-05,1.192e-05,0.0,0 STARLINK-3233,1 49746U 21115Y   23113.21703531  .00001192  00000-0  92987-4 0  9994,2 49746  53.2162 189.3647 0001548  80.2969 279.8198 15.08836119 77900,6917.892,95.438,540.828,538.686,0.0
49746.0,STARLINK-3233,PAYLOAD,2023-04-23 14:44:50,15.08835957,0.0001544,53.2153,187.5808,81.7605,278.3562,3.6417e-05,2.92e-06,0.0,0 STARLINK-3233,1 49746U 21115Y   23113.61447540  .00000292  00000-0  36417-4 0  9999,2 49746  53.2153 187.5808 0001544  81.7605 278.3562 15.08835957 76859,6917.893,95.438,540.826,538.69,0.0
49746.0,STARLINK-3233,PAYLOAD,2023-04-24 05:03:17,15.08856243,0.000104,53.2175,184.9038,102.5006,257.6102,0.00058668,9.066e-05,0.0,0 STARLINK-3233,1 49746U 21115Y   23114.21062460  .00009066  00000-0  58668-3 0  9999,2 49746  53.2175 184.9038 0001040 102.5006 257.6102 15.08856243 78052,6917.831,95.437,540.415,538.976,0.0
49746.0,STARLINK-3233,PAYLOAD,2023-04-24 14:35:35,15.08885791,0.0001184,53.2154,183.119,93.6275,266.4853,0.00078609,0.0001226,0.0,0 STARLINK-3233,1 49746U 21115Y   23114.60804734  .00012260  00000-0  78609-3 0  9997,2 49746  53.2154 183.1190 0001184  93.6275 266.4853 15.08885791 77001,6917.74,95.435,540.424,538.786,0.0
49746.0,STARLINK-3233,PAYLOAD,2023-04-25 11:15:38,15.08813946,0.0001356,53.2159,179.2544,109.8628,250.2511,-0.00040493,-6.722e-05,0.0,0 STARLINK-3233,1 49746U 21115Y   23115.46919979 -.00006722  00000-0 -40493-3 0  9998,2 49746  53.2159 179.2544 0001356 109.8628 250.2511 15.08813946 78240,6917.96,95.439,540.763,538.887,0.0
49746.0,STARLINK-3233,PAYLOAD,2023-04-26 09:31:03,15.08819969,0.0001261,53.2154,175.0903,95.8014,264.3122,0.00010527,1.387e-05,0.0,0 STARLINK-3233,1 49746U 21115Y   23116.39656503  .00001387  00000-0  10527-3 0  9997,2 49746  53.2154 175.0903 0001261  95.8014 264.3122 15.08819969 77273,6917.942,95.439,540.679,538.934,0.0
49746.0,STARLINK-3233,PAYLOAD,2023-04-26 20:38:45,15.08836975,0.0001157,53.215,173.0108,104.8454,255.2666,0.00062917,9.739e-05,0.0,0 STARLINK-3233,1 49746U 21115Y   23116.86025139  .00009739  00000-0  62917-3 0  9993,2 49746  53.2150 173.0108 0001157 104.8454 255.2666 15.08836975 77343,6917.89,95.438,540.555,538.954,0.0
49746.0,STARLINK-3233,PAYLOAD,2023-04-27 12:32:36,15.08867017,0.0001162,53.2149,170.037,104.9689,255.1432,0.0010338,0.00016215,0.0,0 STARLINK-3233,1 49746U 21115Y   23117.52264449  .00016215  00000-0  10338-2 0  9992,2 49746  53.2149 170.0370 0001162 104.9689 255.1432 15.08867017 77448,6917.798,95.436,540.467,538.859,0.0
49746.0,STARLINK-3233,PAYLOAD,2023-04-28 02:51:03,15.08867791,0.0001422,53.2158,167.3631,128.4744,231.6376,0.00074491,0.00011596,0.0,0 STARLINK-3233,1 49746U 21115Y   23118.11879604  .00011596  00000-0  74491-3 0  9991,2 49746  53.2158 167.3631 0001422 128.4744 231.6376 15.08867791 78647,6917.795,95.436,540.644,538.677,0.0
49746.0,STARLINK-3233,PAYLOAD,2023-04-28 10:47:59,15.08860319,0.0001242,53.2153,165.8742,105.8569,254.256,0.00026248,3.894e-05,0.0,0 STARLINK-3233,1 49746U 21115Y   23118.44999469  .00003894  00000-0  26248-3 0  9998,2 49746  53.2153 165.8742 0001242 105.8569 254.2560 15.08860319 78692,6917.818,95.436,540.542,538.824,0.0
49746.0,STARLINK-3233,PAYLOAD,2023-04-28 20:20:18,15.08842178,0.0001316,53.2152,164.09,94.5782,265.5361,-0.00027178,-4.611e-05,0.0,0 STARLINK-3233,1 49746U 21115Y   23118.84743596 -.00004611  00000-0 -27178-3 0  9993,2 49746  53.2152 164.0900 0001316  94.5782 265.5361 15.08842178 78755,6917.874,95.437,540.649,538.828,0.0
49746.0,STARLINK-3233,PAYLOAD,2023-04-29 09:03:23,15.08847172,0.0001282,53.2158,161.7117,89.9173,270.1966,-2.2912e-05,-6.53e-06,0.0,0 STARLINK-3233,1 49746U 21115Y   23119.37735457 -.00000653  00000-0 -22912-4 0  9993,2 49746  53.2158 161.7117 0001282  89.9173 270.1966 15.08847172 77727,6917.858,95.437,540.61,538.837,0.0
49746.0,STARLINK-3233,PAYLOAD,2023-04-30 08:54:10,15.08843672,0.0001298,53.2155,157.2516,83.2763,276.8377,9.7865e-05,1.27e-05,0.0,0 STARLINK-3233,1 49746U 21115Y   23120.37095601  .00001270  00000-0  97865-4 0  9998,2 49746  53.2155 157.2516 0001298  83.2763 276.8377 15.08843672 77872,6917.869,95.437,540.632,538.836,0.0
49746.0,STARLINK-3233,PAYLOAD,2023-04-30 13:40:19,15.08845769,0.0001286,53.2156,156.3592,89.6625,270.4515,0.00018908,2.723e-05,0.0,0 STARLINK-3233,1 49746U 21115Y   23120.56967532  .00002723  00000-0  18908-3 0  9994,2 49746  53.2156 156.3592 0001286  89.6625 270.4515 15.08845769 79012,6917.863,95.437,540.617,538.838,0.0
49746.0,STARLINK-3233,PAYLOAD,2023-05-01 05:34:11,15.08834369,0.0001551,53.216,153.3854,84.1431,275.9737,3.6412e-05,2.91e-06,0.0,0 STARLINK-3233,1 49746U 21115Y   23121.23208246  .00000291  00000-0  36412-4 0  9998,2 49746  53.2160 153.3854 0001551  84.1431 275.9737 15.08834369 79116,6917.898,95.438,540.836,538.69,0.0
49746.0,STARLINK-3233,PAYLOAD,2023-05-01 11:55:44,15.08834824,0.0001496,53.2159,152.1941,106.1942,253.9215,2.8412e-05,1.64e-06,0.0,0 STARLINK-3233,1 49746U 21115Y   23121.49704177  .00000164  00000-0  28412-4 0  9990,2 49746  53.2159 152.1941 0001496 106.1942 253.9215 15.08834824 78042,6917.896,95.438,540.796,538.726,0.0
49746.0,STARLINK-3233,PAYLOAD,2023-05-01 13:31:07,15.08836064,0.0001443,53.2163,151.8966,104.3696,255.7456,3.6151e-05,2.87e-06,0.0,0 STARLINK-3233,1 49746U 21115Y   23121.56328185  .00000287  00000-0  36151-4 0  9994,2 49746  53.2163 151.8966 0001443 104.3696 255.7456 15.08836064 78054,6917.892,95.438,540.756,538.759,0.0
49746.0,STARLINK-3233,PAYLOAD,2023-05-02 07:00:21,15.08847243,0.0001367,53.2166,148.6256,98.0062,262.1085,0.0001275,1.742e-05,0.0,0 STARLINK-3233,1 49746U 21115Y   23122.29191329  .00001742  00000-0  12750-3 0  9998,2 49746  53.2166 148.6256 0001367  98.0062 262.1085 15.08847243 79270,6917.858,95.437,540.669,538.778,0.0
49746.0,STARLINK-3233,PAYLOAD,2023-05-02 11:46:30,15.08848704,0.0001345,53.2169,147.7341,91.2041,268.9105,0.00012938,1.772e-05,0.0,0 STARLINK-3233,1 49746U 21115Y   23122.49063213  .00001772  00000-0  12938-3 0  9991,2 49746  53.2169 147.7341 0001345  91.2041 268.9105 15.08848704 78196,6917.854,95.437,540.649,538.788,0.0
49746.0,STARLINK-3233,PAYLOAD,2023-05-03 05:15:46,15.08834477,0.0001343,53.2163,144.464,79.9422,280.1722,6.2187e-05,7.02e-06,0.0,0 STARLINK-3233,1 49746U 21115Y   23123.21928491  .00000702  00000-0  62187-4 0  9994,2 49746  53.2163 144.4640 0001343  79.9422 280.1722 15.08834477 79419,6917.897,95.438,540.691,538.833,0.0
49746.0,STARLINK-3233,PAYLOAD,2023-05-03 10:01:55,15.0883677,0.0001319,53.2166,143.5717,83.5887,276.5255,7.2054e-05,8.59e-06,0.0,0 STARLINK-3233,1 49746U 21115Y   23123.41800311  .00000859  00000-0  72054-4 0  9993,2 49746  53.2166 143.5717 0001319  83.5887 276.5255 15.08836770 78334,6917.89,95.438,540.668,538.843,0.0
49746.0,STARLINK-3233,PAYLOAD,2023-05-04 09:52:42,15.08842017,0.0001402,53.2177,139.1128,96.1118,264.0034,4.3514e-06,-2.19e-06,0.0,0 STARLINK-3233,1 49746U 21115Y   23124.41160106 -.00000219  00000-0  43514-5 0  9996,2 49746  53.2177 139.1128 0001402  96.1118 264.0034 15.08842017 79590,6917.874,95.437,540.709,538.769,0.0
